THEMIS D                
1 30797U 07004D   22229.27884081 -.00000510  00000+0  00000+0 0  9997
2 30797   9.6670 328.6630 8339024 191.5845 152.4412  0.87838565 53182
THEMIS E                
1 30798U 07004E   22228.34624390 -.00000508  00000+0  00000+0 0  9997
2 30798  10.5838 342.2923 8327947 179.9597 207.2268  0.87841966 53606
AIM                     
1 31304U 07015A   22228.77290516  .00006120  00000+0  30069-3 0  9996
2 31304  97.8521 150.2530 0005525 149.4912 210.6643 15.18437086840342
FGRST (GLAST)           
1 33053U 08029A   22228.81110876  .00001619  00000+0  74096-4 0  9997
2 33053  25.5824 115.5552 0012106 158.5442 201.5602 15.12328420783063
WISE                    
1 36119U 09071A   22229.38724812  .00005598  00000+0  17109-3 0  9996
2 36119  97.2360 262.6091 0004074  92.3785 267.7925 15.34262239704864
TDRS 11                 
1 39070U 13004A   22228.73657812  .00000070  00000+0  00000+0 0  9997
2 39070   2.8782 347.7477 0006105  79.7429 348.4715  1.00276780 32656
TDRS 12                 
1 39504U 14004A   22229.24429817 -.00000277  00000+0  00000+0 0  9999
2 39504   3.8095 348.3337 0004275 139.5556 244.6878  1.00277087 31411
GPM-CORE                
1 39574U 14009C   22229.24653331  .00013532  00000+0  19680-3 0  9996
2 39574  65.0028 341.3702 0010074 279.8145  80.1864 15.55985704481075
MMS 1                   
1 40482U 15011A   22224.96116898 -.00002151  00000+0  00000+0 0  9994
2 40482  31.5417 101.5694 8758820  56.7219 118.7089  0.28354534 13456
MMS 2                   
1 40483U 15011B   22224.97141204 -.00002150  00000+0  00000+0 0  9994
2 40483  31.4735 101.3501 8754770  56.8924 119.6949  0.28338239 13435
MMS 3                   
1 40484U 15011C   22224.97413194 -.00002150  00000+0  00000+0 0  9995
2 40484  31.5374 101.5828 8758753  56.7093 120.0527  0.28354236 13434
MMS 4                   
1 40485U 15011D   22224.97555556 -.00002149  00000+0  00000+0 0  9993
2 40485  31.4721 101.3535 8754020  56.8965 120.0971  0.28338251 13437
TDRS 13                 
1 42915U 17047A   22228.77680793 -.00000109  00000+0  00000+0 0  9992
2 42915   4.3929 334.0274 0018527 123.0892 136.1857  1.00272312 18302
NOAA 20                 
1 43013U 17073A   22229.54455684  .00000032  00000+0  35718-4 0  9999
2 43013  98.7174 167.1493 0000746  92.7194 267.4068 14.19565900245890
