[{"OBJECT_NAME":"THEMIS D","OBJECT_ID":"2007-004D","EPOCH":"2022-08-17T06:41:31.845984","MEAN_MOTION":0.87838565,"ECCENTRICITY":0.8339024,"INCLINATION":9.667,"RA_OF_ASC_NODE":328.663,"ARG_OF_PERICENTER":191.5845,"MEAN_ANOMALY":152.4412,"EPHEMERIS_TYPE":0,"CLASSIFICATION_TYPE":"U","NORAD_CAT_ID":30797,"ELEMENT_SET_NO":999,"REV_AT_EPOCH":5318,"BSTAR":0,"MEAN_MOTION_DOT":-5.1e-6,"MEAN_MOTION_DDOT":0},{"OBJECT_NAME":"THEMIS E","OBJECT_ID":"2007-004E","EPOCH":"2022-08-16T08:18:35.472960","MEAN_MOTION":0.87841966,"ECCENTRICITY":0.8327947,"INCLINATION":10.5838,"RA_OF_ASC_NODE":342.2923,"ARG_OF_PERICENTER":179.9597,"MEAN_ANOMALY":207.2268,"EPHEMERIS_TYPE":0,"CLASSIFICATION_TYPE":"U","NORAD_CAT_ID":30798,"ELEMENT_SET_NO":999,"REV_AT_EPOCH":5360,"BSTAR":0,"MEAN_MOTION_DOT":-5.08e-6,"MEAN_MOTION_DDOT":0},{"OBJECT_NAME":"AIM","OBJECT_ID":"2007-015A","EPOCH":"2022-08-16T18:32:59.005824","MEAN_MOTION":15.18437086,"ECCENTRICITY":0.0005525,"INCLINATION":97.8521,"RA_OF_ASC_NODE":150.253,"ARG_OF_PERICENTER":149.4912,"MEAN_ANOMALY":210.6643,"EPHEMERIS_TYPE":0,"CLASSIFICATION_TYPE":"U","NORAD_CAT_ID":31304,"ELEMENT_SET_NO":999,"REV_AT_EPOCH":84034,"BSTAR":0.00030069,"MEAN_MOTION_DOT":6.12e-5,"MEAN_MOTION_DDOT":0},{"OBJECT_NAME":"FGRST (GLAST)","OBJECT_ID":"2008-029A","EPOCH":"2022-08-16T19:27:59.796864","MEAN_MOTION":15.1232842,"ECCENTRICITY":0.0012106,"INCLINATION":25.5824,"RA_OF_ASC_NODE":115.5552,"ARG_OF_PERICENTER":158.5442,"MEAN_ANOMALY":201.5602,"EPHEMERIS_TYPE":0,"CLASSIFICATION_TYPE":"U","NORAD_CAT_ID":33053,"ELEMENT_SET_NO":999,"REV_AT_EPOCH":78306,"BSTAR":7.4096e-5,"MEAN_MOTION_DOT":1.619e-5,"MEAN_MOTION_DDOT":0},{"OBJECT_NAME":"WISE","OBJECT_ID":"2009-071A","EPOCH":"2022-08-17T09:17:38.237568","MEAN_MOTION":15.34262239,"ECCENTRICITY":0.0004074,"INCLINATION":97.236,"RA_OF_ASC_NODE":262.6091,"ARG_OF_PERICENTER":92.3785,"MEAN_ANOMALY":267.7925,"EPHEMERIS_TYPE":0,"CLASSIFICATION_TYPE":"U","NORAD_CAT_ID":36119,"ELEMENT_SET_NO":999,"REV_AT_EPOCH":70486,"BSTAR":0.00017109,"MEAN_MOTION_DOT":5.598e-5,"MEAN_MOTION_DDOT":0},{"OBJECT_NAME":"TDRS 11","OBJECT_ID":"2013-004A","EPOCH":"2022-08-16T17:40:40.349568","MEAN_MOTION":1.0027678,"ECCENTRICITY":0.0006105,"INCLINATION":2.8782,"RA_OF_ASC_NODE":347.7477,"ARG_OF_PERICENTER":79.7429,"MEAN_ANOMALY":348.4715,"EPHEMERIS_TYPE":0,"CLASSIFICATION_TYPE":"U","NORAD_CAT_ID":39070,"ELEMENT_SET_NO":999,"REV_AT_EPOCH":3265,"BSTAR":0,"MEAN_MOTION_DOT":7.0e-7,"MEAN_MOTION_DDOT":0},{"OBJECT_NAME":"TDRS 12","OBJECT_ID":"2014-004A","EPOCH":"2022-08-17T05:51:47.361888","MEAN_MOTION":1.00277087,"ECCENTRICITY":0.0004275,"INCLINATION":3.8095,"RA_OF_ASC_NODE":348.3337,"ARG_OF_PERICENTER":139.5556,"MEAN_ANOMALY":244.6878,"EPHEMERIS_TYPE":0,"CLASSIFICATION_TYPE":"U","NORAD_CAT_ID":39504,"ELEMENT_SET_NO":999,"REV_AT_EPOCH":3141,"BSTAR":0,"MEAN_MOTION_DOT":-2.77e-6,"MEAN_MOTION_DDOT":0},{"OBJECT_NAME":"GPM-CORE","OBJECT_ID":"2014-009C","EPOCH":"2022-08-17T05:55:00.477984","MEAN_MOTION":15.55985704,"ECCENTRICITY":0.0010074,"INCLINATION":65.0028,"RA_OF_ASC_NODE":341.3702,"ARG_OF_PERICENTER":279.8145,"MEAN_ANOMALY":80.1864,"EPHEMERIS_TYPE":0,"CLASSIFICATION_TYPE":"U","NORAD_CAT_ID":39574,"ELEMENT_SET_NO":999,"REV_AT_EPOCH":48107,"BSTAR":0.0001968,"MEAN_MOTION_DOT":0.00013532,"MEAN_MOTION_DDOT":0},{"OBJECT_NAME":"MMS 1","OBJECT_ID":"2015-011A","EPOCH":"2022-08-12T23:04:04.999872","MEAN_MOTION":0.28354534,"ECCENTRICITY":0.875882,"INCLINATION":31.5417,"RA_OF_ASC_NODE":101.5694,"ARG_OF_PERICENTER":56.7219,"MEAN_ANOMALY":118.7089,"EPHEMERIS_TYPE":0,"CLASSIFICATION_TYPE":"U","NORAD_CAT_ID":40482,"ELEMENT_SET_NO":999,"REV_AT_EPOCH":1345,"BSTAR":0,"MEAN_MOTION_DOT":-2.151e-5,"MEAN_MOTION_DDOT":0},{"OBJECT_NAME":"MMS 2","OBJECT_ID":"2015-011B","EPOCH":"2022-08-12T23:18:50.000256","MEAN_MOTION":0.28338239,"ECCENTRICITY":0.875477,"INCLINATION":31.4735,"RA_OF_ASC_NODE":101.3501,"ARG_OF_PERICENTER":56.8924,"MEAN_ANOMALY":119.6949,"EPHEMERIS_TYPE":0,"CLASSIFICATION_TYPE":"U","NORAD_CAT_ID":40483,"ELEMENT_SET_NO":999,"REV_AT_EPOCH":1343,"BSTAR":0,"MEAN_MOTION_DOT":-2.15e-5,"MEAN_MOTION_DDOT":0},{"OBJECT_NAME":"MMS 3","OBJECT_ID":"2015-011C","EPOCH":"2022-08-12T23:22:44.999616","MEAN_MOTION":0.28354236,"ECCENTRICITY":0.8758753,"INCLINATION":31.5374,"RA_OF_ASC_NODE":101.5828,"ARG_OF_PERICENTER":56.7093,"MEAN_ANOMALY":120.0527,"EPHEMERIS_TYPE":0,"CLASSIFICATION_TYPE":"U","NORAD_CAT_ID":40484,"ELEMENT_SET_NO":999,"REV_AT_EPOCH":1343,"BSTAR":0,"MEAN_MOTION_DOT":-2.15e-5,"MEAN_MOTION_DDOT":0},{"OBJECT_NAME":"MMS 4","OBJECT_ID":"2015-011D","EPOCH":"2022-08-12T23:24:48.000384","MEAN_MOTION":0.28338251,"ECCENTRICITY":0.875402,"INCLINATION":31.4721,"RA_OF_ASC_NODE":101.3535,"ARG_OF_PERICENTER":56.8965,"MEAN_ANOMALY":120.0971,"EPHEMERIS_TYPE":0,"CLASSIFICATION_TYPE":"U","NORAD_CAT_ID":40485,"ELEMENT_SET_NO":999,"REV_AT_EPOCH":1343,"BSTAR":0,"MEAN_MOTION_DOT":-2.149e-5,"MEAN_MOTION_DDOT":0},{"OBJECT_NAME":"TDRS 13","OBJECT_ID":"2017-047A","EPOCH":"2022-08-16T18:38:36.205152","MEAN_MOTION":1.00272312,"ECCENTRICITY":0.0018527,"INCLINATION":4.3929,"RA_OF_ASC_NODE":334.0274,"ARG_OF_PERICENTER":123.0892,"MEAN_ANOMALY":136.1857,"EPHEMERIS_TYPE":0,"CLASSIFICATION_TYPE":"U","NORAD_CAT_ID":42915,"ELEMENT_SET_NO":999,"REV_AT_EPOCH":1830,"BSTAR":0,"MEAN_MOTION_DOT":-1.09e-6,"MEAN_MOTION_DDOT":0},{"OBJECT_NAME":"JPSS-1","OBJECT_ID":"2017-073A","EPOCH":"2022-08-17T13:04:09.710976","MEAN_MOTION":14.195659,"ECCENTRICITY":7.46e-5,"INCLINATION":98.7174,"RA_OF_ASC_NODE":167.1493,"ARG_OF_PERICENTER":92.7194,"MEAN_ANOMALY":267.4068,"EPHEMERIS_TYPE":0,"CLASSIFICATION_TYPE":"U","NORAD_CAT_ID":43013,"ELEMENT_SET_NO":999,"REV_AT_EPOCH":24589,"BSTAR":3.5718e-5,"MEAN_MOTION_DOT":3.2e-7,"MEAN_MOTION_DDOT":0}]